#cP2015 12 30  0  0  0.00000000     288   u+U UNDEF FIT  GFZ                    
## 1877 259200.00000000   300.00000000 57386 0.0000000000000                    
+   77   C01C02C03C04C05C06C07C08C09C10C11C12C14E11E12E14E19                    
+        E22E24E26E30G01G02G03G05G06G07G08G09G10G11G12G13G14                    
+        G15G16G17G18G19G20G21G22G23G24G25G26G27G28G29G30G31                    
+        G32J01R01R02R03R04R05R06R07R08R09R10R11R12R13R14R15                    
+        R16R18R19R20R21R22R23R24R26 00 00 00 00 00 00 00 00                    
++        10 10 10 10 10 10  9 10 10 10  7 10 10 10  8  8  8                    
++         5  7  6  6  5  6  6  6  6  5  5  5  6  6  6  6  5                    
++         5  8  6  6  6  6  5  6  7  5  5  5  6  6  6  6  6                    
++         6 10  8  8  9  6  8  6  7  6  8  6  8  9  7 10  8                    
++         8  6  6  9  8  7  8 10  7  0  0  0  0  0  0  0  0                    
%c M  cc GPS ccc cccc cccc cccc cccc ccccc ccccc ccccc ccccc                    
%c cc cc ccc ccc cccc cccc cccc cccc ccccc ccccc ccccc ccccc                    
%f  1.2500000  1.025000000  0.00000000000  0.000000000000000                    
%f  0.0000000  0.000000000  0.00000000000  0.000000000000000                    
%i    0    0    0    0      0      0      0      0         0                    
%i    0    0    0    0      0      0      0      0         0                    
/* PCV:IGS08_1869 OL/AL:FES2004  NONE     YN CLK:CoN ORB:CoN                    
/*     GeoForschungsZentrum Potsdam                                             
/*                                                                              
/*                                                                              
*  2015 12 30 22 25  0.00000000                                                 
PC01 -32283.384744  27092.725787   -540.861889   -421.099491                    
PC02   7324.724590  41526.101352    428.799161    -38.149554                    
PC03 -14808.982593  39490.337937    399.593938   -208.541780                    
PC04 -39584.758297  14420.849837   -116.870613   -309.971281                    
PC05  21913.876727  36016.045754   1037.674000      5.783136                    
PC06 -22033.498354  36041.540512  -2185.084774    -45.527663                    
PC07  -7415.928618  30228.545679 -28216.536279    235.766970                    
PC08 -19283.144897  19524.155189  32002.830790    -88.773668                    
PC09 -11744.511496  36885.104689 -16957.837772    817.797496                    
PC10   5746.552427  37705.319873 -17598.180823    312.597026                    
PC11 -26900.048830   5004.371220   5229.921630    315.597234                    
PC12 -23541.327452  -7297.453213 -12933.264479    355.250364                    
PC14 -18984.273728  11199.743244  17185.786983    485.508350                    
PE11  10600.040343  17299.807596  21552.027017      8.599495                    
PE12  -9921.889835  14654.350749  23735.354693   -172.432489                    
PE14 -27804.443612  -7692.001295 -14566.686197   3079.231776                    
PE19 -23413.649347  12020.774423  13548.468940     -9.498364                    
PE22  25934.110493  -4220.008503 -13653.556306    189.568537                    
PE24   8713.607937  28275.854244  -1190.662798   1286.861495                    
PE26 -27430.884475  -9651.691399  -5474.188226   2605.015264                    
PE30   4849.322736 -22631.092822  18446.667584   1260.751909                    
PG01 -21311.083642 -11516.587631  11059.301595      7.927493                    
PG02  11959.847319  21934.956053  10022.000767    598.644697                    
PG03 -14596.148610  -4445.335317  21738.848512     -4.988179                    
PG05   4398.612905  21941.926302 -14225.255809   -160.003100                    
PG06   -254.070569  18718.897786  18846.606659    121.050951                    
PG07 -16520.074903   2818.701347 -20567.087128    475.559625                    
PG08 -18851.892760  -7610.206742 -17038.351757    -18.190648                    
PG09 -25060.531780   8311.486510  -2948.939362     39.722895                    
PG10  10860.094480 -23594.748962  -5429.117600     47.907979                    
PG11 -24326.060834 -10567.369248   1392.459552   -624.632796                    
PG12  12425.468606   8082.979896  21948.939420    357.337354                    
PG13  10267.625295  13048.459700 -20845.172095   -175.066847                    
PG14  14995.821414 -14223.070898  16847.805691     12.206124                    
PG15  21594.146129   5146.654166 -14948.106027   -289.827907                    
PG16  -1922.307968 -22035.799759 -14493.197853    -52.641122                    
PG17 -15298.602095  14335.669388  16500.514594   -197.824325                    
PG18  15377.700018 -15522.624073 -14398.040470    468.070679                    
PG19 -19873.395943  11900.828474  13177.884682   -524.129939                    
PG20  14726.258030   7070.831411 -21096.949968    382.204089                    
PG21  14252.020746  -7153.005956 -20556.146669   -502.520126                    
PG22   5864.370710 -25806.432414   1323.703037    416.361754                    
PG23 -25347.165752   -455.326352   8802.401590   -152.446388                    
PG24  21514.951264  13319.113128   8331.453020    -10.023417                    
PG25  16011.892637  -6961.261961  19857.721694    -91.419910                    
PG26   4098.585855 -25808.255883  -4661.827233   -189.394002                    
PG27  -8630.852474 -13062.620170 -21495.679384     49.019305                    
PG28 -12128.205448  22932.104728  -4898.546380    491.951909                    
PG29  26080.590431  -4908.106793   -217.492129    650.132486                    
PG30  -8730.636265  13188.141825 -21330.052992     78.035664                    
PG31   -576.882829 -19299.345833  18195.422714    289.097060                    
PG32  -8164.971289 -16837.026744  18968.334880     64.809446                    
PJ01 -27416.434699  26712.970796  22760.679287   -121.335493                    
PR01  17507.876707 -16253.499457  -8972.745335   -147.210203                    
PR02  10459.169813 -21279.794040   9385.534807    169.142401                    
PR03  -2742.199244 -13432.782455  21533.329737     58.766095                    
PR04 -14419.177519   2568.295009  20893.564363    151.293003                    
PR05 -17399.107940  16686.695056   8309.442296      3.291227                    
PR06  -9758.886239  21335.850380 -10066.075236     81.062806                    
PR07   2848.123275  13298.027749 -21560.763585     -4.968420                    
PR08  14198.801676  -2119.363531 -21045.248205    -27.011135                    
PR09   2376.557486  21723.124242 -13263.995717     23.051289                    
PR10  11029.067188  22683.457098   3526.821052      4.147932                    
PR11  13808.777128  10635.162957  18665.535478     21.056312                    
PR12   8119.362312  -8168.549890  22754.233302     30.886479                    
PR13  -2709.710252 -21740.720482  13053.861132     12.013846                    
PR14 -11532.649924 -22279.277140  -4830.528880    262.513997                    
PR15 -13630.634560 -11702.641616 -18045.469198     60.676840                    
PR16  -7735.448728   8931.078068 -22623.595415     26.948152                    
PR18 -24810.806207  -4944.974067  -3494.788735     82.651744                    
PR19 -20547.855411   3762.431182  14636.495859   -144.463278                    
PR20  -3844.730651  10165.481734  23086.333501   -212.100321                    
PR21  14169.118656  10559.289114  18411.439597     44.680939                    
PR22  24793.544088   4768.602156   3117.542040    186.764327                    
PR23  20379.860046  -4182.401790 -14767.482701    -64.953148                    
PR24   5023.187529 -10028.951230 -22930.272629   -132.331893                    
PR26  -2435.526938  10479.032673  23139.467267     62.797012                    
EOF                                     
